[{"OBJECT_NAME":"IRIDIUM 110","OBJECT_ID":"2018-047F","EPOCH":"2026-03-09T16:39:54.331776","MEAN_MOTION":14.34217414,"ECCENTRICITY":0.00023666,"INCLINATION":86.3979,"RA_OF_ASC_NODE":130.0337,"ARG_OF_PERICENTER":86.5409,"MEAN_ANOMALY":273.6057,"EPHEMERIS_TYPE":0,"CLASSIFICATION_TYPE":"U","NORAD_CAT_ID":43481,"ELEMENT_SET_NO":999,"REV_AT_EPOCH":40821,"BSTAR":-8.01159e-6,"MEAN_MOTION_DOT":-3.0e-8,"MEAN_MOTION_DDOT":0},{"OBJECT_NAME":"ORBVIEW 2 (SEASTAR)","OBJECT_ID":"1997-037A","EPOCH":"2026-03-09T23:24:43.917984","MEAN_MOTION":14.35495219,"ECCENTRICITY":0.00030976,"INCLINATION":98.8568,"RA_OF_ASC_NODE":233.2949,"ARG_OF_PERICENTER":71.5555,"MEAN_ANOMALY":288.5967,"EPHEMERIS_TYPE":0,"CLASSIFICATION_TYPE":"U","NORAD_CAT_ID":24883,"ELEMENT_SET_NO":999,"REV_AT_EPOCH":50851,"BSTAR":0.0001511202,"MEAN_MOTION_DOT":3.88e-6,"MEAN_MOTION_DDOT":0}]
